BEIDOU-2 IGSO-1 (C06)   
1 36828U 10036A   25020.72258159 -.00000074  00000+0  00000+0 0  9995
2 36828  54.2678 167.5949 0043844 207.0370 113.1271  1.00267880 52953
BEIDOU-2 G4 (C04)       
1 37210U 10057A   25020.67586551 -.00000098  00000+0  00000+0 0  9994
2 37210   2.3750  70.3888 0008914 197.0517 256.1174  1.00270968 52150
BEIDOU-2 IGSO-2 (C07)   
1 37256U 10068A   25020.63067260 -.00000187  00000+0  00000+0 0  9992
2 37256  48.4766 278.1627 0038863 214.5864 322.4807  1.00283804 51650
BEIDOU-2 IGSO-3 (C08)   
1 37384U 11013A   25020.59575069 -.00000156  00000+0  00000+0 0  9997
2 37384  61.6684  45.0173 0029565 185.4902 208.6192  1.00255082 50538
BEIDOU-2 IGSO-4 (C09)   
1 37763U 11038A   25020.71873900  .00000001  00000+0  00000+0 0  9992
2 37763  54.5723 170.2514 0132445 228.6795  75.3630  1.00262347 49509
BEIDOU-2 IGSO-5 (C10)   
1 37948U 11073A   25020.58883056 -.00000163  00000+0  00000+0 0  9994
2 37948  48.6126 277.8614 0100956 220.6646 289.4951  1.00283587 48264
BEIDOU-2 G5 (C05)       
1 38091U 12008A   25020.90651399  .00000071  00000+0  00000+0 0  9999
2 38091   2.2966  71.1962 0013140 236.4377 198.0129  1.00276179 47234
BEIDOU-2 M3 (C11)       
1 38250U 12018A   25020.39799800 -.00000097  00000+0  00000+0 0  9999
2 38250  56.1823 322.0978 0023973 272.0170  87.7198  1.86233762 86742
BEIDOU-2 M4 (C12)       
1 38251U 12018B   25020.32893372 -.00000096  00000+0  00000+0 0  9991
2 38251  56.0870 321.3552 0014972 277.1790  82.6627  1.86232226 86393
BEIDOU-2 M6 (C14)       
1 38775U 12050B   25020.57575659 -.00000053  00000+0  00000+0 0  9993
2 38775  56.0925  79.9067 0012471 334.4629  25.5367  1.86231024 83762
BEIDOU-2 G6 (C02)       
1 38953U 12059A   25020.91155307 -.00000160  00000+0  00000+0 0  9991
2 38953   3.1162  78.7324 0009341 290.7673 163.1664  1.00270854 44771
BEIDOU-3S IGSO-1S (C31) 
1 40549U 15019A   25020.60466272 -.00000168  00000+0  00000+0 0  9994
2 40549  50.1654 301.6136 0033683 197.0122 293.2348  1.00256309 35937
BEIDOU-3S M2S (C58)     
1 40748U 15037A   25019.99331290 -.00000096  00000+0  00000+0 0  9996
2 40748  55.3128 319.6509 0011337 269.1722  90.7118  1.86229178 64567
BEIDOU-3S M1S (C57)     
1 40749U 15037B   25018.11916581 -.00000095  00000+0  00000+0 0  9991
2 40749  55.3170 319.7015 0004673 337.8732  22.1182  1.86227633 64538
BEIDOU-3S IGSO-2S (C56) 
1 40938U 15053A   25020.62608631 -.00000095  00000+0  00000+0 0  9992
2 40938  50.0155 264.8569 0051470 187.5713 347.3517  1.00256761 34208
BEIDOU-2 IGSO-6 (C13)   
1 41434U 16021A   25018.01889760 -.00000147  00000+0  00000+0 0  9992
2 41434  59.4941  43.1831 0055246 228.7325 309.4578  1.00273407 32310
BEIDOU-2 G7 (C03)       
1 41586U 16037A   25020.91685278 -.00000338  00000+0  00000+0 0  9999
2 41586   1.9017  67.9655 0008275 343.9198 149.2324  1.00274380  1754
BEIDOU-3 M1 (C19)       
1 43001U 17069A   25020.34156177 -.00000053  00000+0  00000+0 0  9991
2 43001  56.2418  80.0392 0010851 298.1335  61.8182  1.86231401 49054
BEIDOU-3 M2 (C20)       
1 43002U 17069B   25020.27923392 -.00000052  00000+0  00000+0 0  9994
2 43002  56.2408  80.0772 0008025 319.2280  40.7735  1.86231025 49041
BEIDOU-3 M7 (C27)       
1 43107U 18003A   25020.02629962 -.00000098  00000+0  00000+0 0  9998
2 43107  54.7713 320.1454 0003578  54.5692 305.4775  1.86232460 47797
BEIDOU-3 M8 (C28)       
1 43108U 18003B   25019.96852258 -.00000098  00000+0  00000+0 0  9996
2 43108  54.7642 320.1318 0004399 279.8143  80.1494  1.86230964 47807
BEIDOU-3 M4 (C22)       
1 43207U 18018A   25019.87275140 -.00000051  00000+0  00000+0 0  9990
2 43207  56.2002  80.1364 0004984 344.0416  16.0048  1.86231321 47188
BEIDOU-3 M3 (C21)       
1 43208U 18018B   25020.47626144 -.00000053  00000+0  00000+0 0  9995
2 43208  56.2001  80.1206 0008283 307.7271  52.2590  1.86231489 47194
BEIDOU-3 M9 (C29)       
1 43245U 18029A   25020.15857322 -.00000096  00000+0  00000+0 0  9994
2 43245  54.6478 317.8273 0001628 306.7519  53.2492  1.86232808 46343
BEIDOU-3 M10 (C30)      
1 43246U 18029B   25020.08837350 -.00000096  00000+0  00000+0 0  9996
2 43246  54.6452 317.8573 0004835   0.1634 359.8527  1.86228997 46321
BEIDOU-2 IGSO-7 (C16)   
1 43539U 18057A   25019.31863137 -.00000081  00000+0  00000+0 0  9992
2 43539  55.1601 167.5020 0079956 232.2573 302.6513  1.00246108 23989
BEIDOU-3 M5 (C23)       
1 43581U 18062A   25020.31424144  .00000092  00000+0  00000+0 0  9999
2 43581  54.1121 199.7422 0001594 352.0006   7.9936  1.86228874 44082
BEIDOU-3 M6 (C24)       
1 43582U 18062B   25020.17893705  .00000090  00000+0  00000+0 0  9995
2 43582  54.1116 199.7361 0007316  45.2256 314.8303  1.86229773 44082
BEIDOU-3 M12 (C26)      
1 43602U 18067A   25020.65033577  .00000096  00000+0  00000+0 0  9995
2 43602  54.2040 198.4215 0008600  37.2891 322.7663  1.86227887 43573
BEIDOU-3 M11 (C25)      
1 43603U 18067B   25020.24700705  .00000091  00000+0  00000+0 0  9990
2 43603  54.2015 198.3999 0005180  34.1929 325.8350  1.86227378 43596
BEIDOU-3 M13 (C32)      
1 43622U 18072A   25020.74431856 -.00000054  00000+0  00000+0 0  9990
2 43622  56.1729  79.6322 0007556 293.7844  66.1974  1.86231115 43118
BEIDOU-3 M14 (C33)      
1 43623U 18072B   25019.53588975 -.00000051  00000+0  00000+0 0  9998
2 43623  56.1738  79.6659 0004721 315.8049  44.2202  1.86231052 43083
BEIDOU-3 M16 (C35)      
1 43647U 18078A   25020.23397741 -.00000096  00000+0  00000+0 0  9997
2 43647  54.5441 317.9053 0007815  13.7243 346.3128  1.86232402 42605
BEIDOU-3 M15 (C34)      
1 43648U 18078B   25020.36316266 -.00000096  00000+0  00000+0 0  9995
2 43648  54.5396 317.9029 0004649  15.2943 344.7357  1.86232210 42629
BEIDOU-3 G1 (C59)       
1 43683U 18085A   25020.92267378 -.00000263  00000+0  00000+0 0  9999
2 43683   2.7341 102.1784 0000926  43.1697  87.3910  1.00270640 22926
BEIDOU-3 M17 (C36)      
1 43706U 18093A   25020.51650052  .00000094  00000+0  00000+0 0  9995
2 43706  54.1951 199.6898 0006064 299.2662  60.6705  1.86228550 41993
BEIDOU-3 M18 (C37)      
1 43707U 18093B   25020.91701928  .00000099  00000+0  00000+0 0  9994
2 43707  54.1959 199.6680 0005917 343.9781  16.0016  1.86230040 41993
BEIDOU-3 IGSO-1 (C38)   
1 44204U 19023A   25020.68172924 -.00000199  00000+0  00000+0 0  9995
2 44204  57.9619  42.9500 0023705 225.5774 215.8017  1.00289771  2070
BEIDOU-2 G8 (C01)       
1 44231U 19027A   25020.92354258 -.00000232  00000+0  00000+0 0  9996
2 44231   2.0200  74.8912 0004690 213.0540 309.5794  1.00271825 20943
BEIDOU-3 IGSO-2 (C39)   
1 44337U 19035A   25020.82757788 -.00000090  00000+0  00000+0 0  9998
2 44337  55.1995 163.3594 0035736 198.0312 175.1912  1.00272039 20536
BEIDOU-3 M24 (C46)      
1 44542U 19061A   25020.45032826  .00000094  00000+0  00000+0 0  9996
2 44542  54.4231 200.0214 0008876  19.9580 340.0744  1.86229277 36241
BEIDOU-3 M23 (C45)      
1 44543U 19061B   25020.59041032  .00000096  00000+0  00000+0 0  9993
2 44543  54.4214 199.9853 0005537  19.2872 347.2997  1.86229570 36241
BEIDOU-3 IGSO-3 (C40)   
1 44709U 19073A   25020.13297825 -.00000184  00000+0  00000+0 0  9992
2 44709  55.6785 286.4218 0041138 183.5713 176.4727  1.00290869 19311
BEIDOU-3 M22 (C44)      
1 44793U 19078A   25020.29423777 -.00000096  00000+0  00000+0 0  9996
2 44793  54.3913 317.8087 0006654  18.3115 341.7284  1.86232038 35097
BEIDOU-3 M21 (C43)      
1 44794U 19078B   25019.35038428 -.00000096  00000+0  00000+0 0  9997
2 44794  54.3656 317.8130 0004803   8.3964 351.6272  1.86227798 35089
BEIDOU-3 M19 (C41)      
1 44864U 19090A   25020.80449587 -.00000054  00000+0  00000+0 0  9997
2 44864  56.1070  79.7896 0019095 281.6152 165.6365  1.86231671 34691
BEIDOU-3 M20 (C42)      
1 44865U 19090B   25020.60801226 -.00000053  00000+0  00000+0 0  9997
2 44865  56.1086  79.8298 0016469 293.4026 111.8065  1.86231651 34664
BEIDOU-3 G2 (C60)       
1 45344U 20017A   25020.91077115 -.00000126  00000+0  00000+0 0  9998
2 45344   2.6251  36.8990 0003065 270.7263 220.8040  1.00272663 18129
BEIDOU-3 G3 (C61)       
1 45807U 20040A   25020.91676590 -.00000338  00000+0  00000+0 0  9995
2 45807   1.2191  59.4297 0003822 309.2508 192.4241  1.00270718 16936
BEIDOU-3 G4 (C62)       
1 56564U 23066A   25020.67619937 -.00000094  00000+0  00000+0 0  9992
2 56564   1.5826 289.5606 0002492 260.2210 333.8955  1.00273456  6253
BEIDOU-3 M28 (C50)      
1 58654U 23207A   25020.50663067 -.00000055  00000+0  00000+0 0  9993
2 58654  55.2932  79.6640 0003830 273.9177  86.0989  1.86232089  7295
BEIDOU-3 M26 (C48)      
1 58655U 23207B   25019.76916758 -.00000053  00000+0  00000+0 0  9996
2 58655  55.2945  79.6750 0004910 260.4132  99.5928  1.86231539  7262
